QIANFAN-73              
1 63159U 25046A   25258.54240360  .00000102  00000+0  13879-3 0  9990
2 63159  88.9842 329.1355 0015274  27.5759 332.6199 13.50972523 35500
QIANFAN-74              
1 63160U 25046B   25258.59989103  .00000142  00000+0  20102-3 0  9993
2 63160  88.9842 329.0179 0002210 108.2458 251.8934 13.50978694 35575
QIANFAN-75              
1 63161U 25046C   25258.58767714  .00000141  00000+0  19939-3 0  9990
2 63161  88.9844 329.2515 0016449  29.9029 330.3058 13.50975373 35443
QIANFAN-76              
1 63162U 25046D   25258.58351200  .00000091  00000+0  12159-3 0  9991
2 63162  88.9843 329.2330 0014063  31.9621 328.2380 13.50970681 35451
QIANFAN-77              
1 63163U 25046E   25258.59828369  .00000298  00000+0  20737-3 0  9998
2 63163  88.9839 327.9623 0014206   5.3705 354.7622 13.96043898 36156
QIANFAN-78              
1 63164U 25046F   25258.55062405  .00000136  00000+0  19259-3 0  9994
2 63164  88.9842 329.1013 0015512  33.4639 326.7489 13.50974670 35528
QIANFAN-79              
1 63165U 25046G   25258.57926974  .00000136  00000+0  19265-3 0  9994
2 63165  88.9846 329.2024 0015136  31.9485 328.2581 13.50977053 35472
QIANFAN-80              
1 63166U 25046H   25258.59584624  .00000151  00000+0  21567-3 0  9994
2 63166  88.9843 328.9100 0014304  36.6456 323.5671 13.50977176 35639
